NAVSTAR 77 (USA 289)    
1 43873U 18109A   24083.22977597  .00000046  00000+0  00000+0 0  9997
2 43873  55.2615 124.4234 0028369 195.1084  91.5116  2.00552289 38655
